INTELSAT 20 (IS-20)     
1 38740U 12043A   17269.79366175 -.00000040  00000-0  00000+0 0  9995
2 38740   0.0129 171.2232 0002388  12.9339 175.8582  1.00272207 18895
HYLAS 2                 
1 38741U 12043B   17269.89750466  .00000139  00000-0  00000-0 0  9996
2 38741   0.0193 209.4421 0001909 321.5891 188.9897  1.00273276 18836
INTELSAT 21 (IS-21)     
1 38749U 12045A   17270.14411201 -.00000299  00000-0  00000+0 0  9994
2 38749   0.0239 186.0890 0002219 355.2606 178.6498  1.00269456 18702
ASTRA 2F                
1 38778U 12051A   17269.90527864  .00000135  00000-0  00000-0 0  9997
2 38778   0.0762 240.7091 0004478 324.9098 154.3764  1.00275038  9231
GSAT-10                 
1 38779U 12051B   17269.75351163 -.00000181  00000-0  00000-0 0  9990
2 38779   0.0150 134.7611 0001121   1.7085 223.5564  1.00273970 18185
INTELSAT 23 (IS-23)     
1 38867U 12057A   17270.13023827 -.00000299  00000-0  00000+0 0  9990
2 38867   0.0212 236.6081 0001757 307.3552 176.0531  1.00271829 18170
BEIDOU G6               
1 38953U 12059A   17270.37341100 -.00000189  00000-0  00000-0 0  9990
2 38953   1.8606  80.0191 0006054 163.3926 341.3874  1.00272469 18117
LUCH 5B                 
1 38977U 12061A   17270.22491725 -.00000143  00000-0  00000+0 0  9991
2 38977   3.7411  73.8428 0001871 108.1387 248.9396  1.00272379 18235
YAMAL 300K              
1 38978U 12061B   17270.38308042  .00000057  00000-0  00000+0 0  9991
2 38978   0.0186 212.6830 0001215  50.6211  63.9291  1.00272832 17933
STAR ONE C3             
1 38991U 12062A   17270.39560198 -.00000263  00000-0  00000+0 0  9990
2 38991   0.0909  84.5005 0002150 121.1294 228.1613  1.00273325 17925
EUTELSAT 21B            
1 38992U 12062B   17269.92359586  .00000116  00000-0  00000+0 0  9991
2 38992   0.0705  21.2427 0002417 173.7937 164.9739  1.00274566 17934
ECHOSTAR 16             
1 39008U 12065A   17270.15380754 -.00000296  00000-0  00000-0 0  9992
2 39008   0.0192 186.2083 0002106   2.2272 171.5788  1.00273692 17685
CHINASAT 12 (ZX 12)     
1 39017U 12067A   17270.56958991 -.00000221  00000-0  00000-0 0  9991
2 39017   0.0134 253.6978 0002652 294.6551 110.7560  1.00271568 17577
EUTELSAT 70B            
1 39020U 12069A   17269.78819052 -.00000059  00000-0  00000-0 0  9992
2 39020   0.0665  22.2492 0002477 160.9516 176.8148  1.00272158 17573
YAMAL 402               
1 39022U 12070A   17268.26438219  .00000068  00000-0  10000-3 0  9993
2 39022   0.0095 251.5710 0002903 295.2406 327.5460  1.00273100 17644
SKYNET 5D               
1 39034U 12075A   17270.59672913  .00000085  00000-0  00000-0 0  9996
2 39034   0.0726 354.4834 0003881 193.0626  86.6020  1.00275385 17230
MEXSAT 3                
1 39035U 12075B   17270.30149962 -.00000040  00000-0  00000+0 0  9990
2 39035   0.0104 211.8269 0002229 329.2806 178.9101  1.00273548 17545
TDRS 11                 
1 39070U 13004A   17270.36978976  .00000080  00000-0  00000-0 0  9997
2 39070   5.2624 328.5655 0009743 287.7680  72.0381  1.00277496 14760
AMAZONAS 3              
1 39078U 13006A   17270.15235822 -.00000297  00000-0  00000-0 0  9991
2 39078   0.0347 224.9779 0005032 345.5644 149.4463  1.00272134 12952
AZERSPACE 1             
1 39079U 13006B   17269.85601961  .00000118  00000-0  00000-0 0  9999
2 39079   0.0216 189.1655 0001478   8.3936 162.4358  1.00270163 16863
EUTELSAT 117 WEST A     
1 39122U 13012A   17270.30699474 -.00000027  00000-0  00000-0 0  9993
2 39122   0.0144 123.7646 0002572  71.9091 164.3365  1.00271428 16516
ANIK G1                 
1 39127U 13014A   17270.28065913 -.00000089  00000-0  00000+0 0  9999
2 39127   0.0412 270.9823 0001731 290.4360 158.5925  1.00272462 16329
CHINASAT 11 (ZX 11)     
1 39157U 13020A   17270.36854912 -.00000306  00000-0  00000+0 0  9995
2 39157   0.0378 256.5897 0002069  24.5033 315.9582  1.00272736 16212
EUTELSAT 7B             
1 39163U 13022A   17269.96402284  .00000033  00000-0  00000-0 0  9996
2 39163   0.0196  21.7458 0001546 339.0256 359.2288  1.00268643 16050
SES-6                   
1 39172U 13026A   17270.09559566 -.00000276  00000-0  00000+0 0  9991
2 39172   0.0434 359.0654 0001755 190.9566 169.9922  1.00272668 15793
IRNSS-1A                
1 39199U 13034A   17267.10991148  .00000096  00000-0  00000+0 0  9992
2 39199  28.9767 113.3258 0018896 177.6958 166.8323  1.00277373 15678
ALPHASAT                
1 39215U 13038A   17269.99289033  .00000124  00000-0  00000-0 0  9990
2 39215   1.7713  28.0334 0002175 143.7656 216.4677  1.00272647 12115
INSAT-3D                
1 39216U 13038B   17269.75591617 -.00000172  00000-0  00000+0 0  9992
2 39216   0.0384  98.4425 0000677 106.3934 155.1781  1.00274450 15362
EUTELSAT 25B            
1 39233U 13044A   17269.91286000  .00000128  00000-0  00000-0 0  9994
2 39233   0.0556 358.2588 0001552 194.2808 167.4739  1.00272546 14708
GSAT-7                  
1 39234U 13044B   17269.77837664 -.00000092  00000-0  00000-0 0  9998
2 39234   0.0520 253.0763 0003274 343.9527 122.9568  1.00272027 13429
AMOS-4                  
1 39237U 13045A   17269.80330425 -.00000007  00000-0  00000+0 0  9994
2 39237   0.0379 210.0630 0001431   6.6461 143.2811  1.00269701 14954
ASTRA 2E                
1 39285U 13056A   17269.90454517  .00000136  00000-0  00000+0 0  9991
2 39285   0.0593 350.8156 0002319 195.7531 173.4456  1.00271503 14655
SIRIUS FM-6             
1 39360U 13058A   17270.30511194 -.00000031  00000-0  00000-0 0  9994
2 39360   0.0217 210.1026 0000328 272.7702 237.1304  1.00269291 14235
RADUGA-1M 3             
1 39375U 13062A   17270.45309220 -.00000053  00000-0  00000-0 0  9990
2 39375   0.0113 198.1465 0001254  29.2898  12.1246  1.00273026 14190
SES-8                   
1 39460U 13071A   17269.72029976 -.00000285  00000-0  00000-0 0  9997
2 39460   0.0367 262.9942 0002255 242.8429 214.1944  1.00273910 12583
INMARSAT 5-F1           
1 39476U 13073A   17269.00857696  .00000012  00000-0  00000+0 0  9991
2 39476   0.0114 198.9887 0000045 318.7877 272.9390  1.00272217 13982
TKSAT-1 (TUPAC KATARI)  
1 39481U 13075A   17270.49629484 -.00000208  00000-0  00000-0 0  9995
2 39481   0.0351  11.0554 0001572 158.1942 288.6840  1.00270044 13667
EXPRESS-AM5             
1 39487U 13077A   17270.14960547 -.00000294  00000-0  00000+0 0  9997
2 39487   0.0366 305.0126 0000801 350.0728 264.9384  1.00271509 14432
GSAT-14                 
1 39498U 14001A   17269.77842385 -.00000093  00000-0  00000-0 0  9991
2 39498   0.0237 227.3951 0003447 274.8618 217.7844  1.00273321 13523
THAICOM 6               
1 39500U 14002A   17270.37827288 -.00000136  00000-0  00000-0 0  9997
2 39500   0.0581 126.3240 0004078  49.2236  45.4732  1.00272436 13516
TDRS 12                 
1 39504U 14004A   17270.02987164 -.00000284  00000-0  00000-0 0  9999
2 39504   5.8693 335.9739 0003035 288.9688  70.9379  1.00270236 12349
ABS-2                   
1 39508U 14006A   17269.77582164 -.00000101  00000-0  00000-0 0  9994
2 39508   0.0025  92.1096 0002607 105.8223 162.0589  1.00270218 13384
ATHENA-FIDUS            
1 39509U 14006B   17269.87873415  .00000139  00000-0  00000+0 0  9997
2 39509   0.0299 273.1910 0001529 279.3404 167.4822  1.00273048 13567
TURKSAT 4A              
1 39522U 14007A   17269.86706600  .00000131  00000-0  00000-0 0  9996
2 39522   0.0584 271.5474 0003650 314.7695 133.6702  1.00271476 13069
EXPRESS-AT1             
1 39612U 14010A   17270.59563392  .00000064  00000-0  00000+0 0  9995
2 39612   0.0361 320.9830 0000183 152.5302 163.4905  1.00272846 13112
EXPRESS-AT2             
1 39613U 14010B   17269.08107650 -.00000297  00000-0  00000-0 0  9999
2 39613   0.0368 304.0170 0000204  78.4061 151.6910  1.00271298 12936
AMAZONAS 4A             
1 39616U 14011A   17270.15228317 -.00000297  00000-0  00000+0 0  9996
2 39616   0.0441  15.0606 0002290 125.7844 219.1893  1.00272651 12930
ASTRA 5B                
1 39617U 14011B   17270.41299628  .00000140  00000-0  00000-0 0  9996
2 39617   0.0693 304.4746 0003816 229.4291  12.6699  1.00270905 12742
IRNSS-1B                
1 39635U 14017A   17269.64608899  .00000076  00000-0  00000-0 0  9997
2 39635  28.9015 293.2968 0022011 189.5984 170.3649  1.00273244 12659
LUCH 5V                 
1 39727U 14023A   17270.61028530 -.00000284  00000-0  00000-0 0  9995
2 39727   2.5120 298.9340 0001895 290.8951  91.2066  1.00271065530590
KAZSAT-3                
1 39728U 14023B   17269.82132336  .00000045  00000-0  00000+0 0  9990
2 39728   0.0291  85.3925 0001023 186.8787  87.7345  1.00273606 12503
EUTELSAT 3B             
1 39773U 14030A   17270.42271453  .00000006  00000-0  00000+0 0  9997
2 39773   0.1023 314.2305 0004371 236.1770 331.2956  1.00274021 12285
ASIASAT 8               
1 40107U 14046A   17269.99425322 -.00000048  00000-0  00000-0 0  9991
2 40107   0.0154 228.0784 0002105 320.0786 171.8572  1.00273513 70223
ASIASAT 6               
1 40141U 14052A   17270.59405370 -.00000376  00000-0  00000-0 0  9999
2 40141   0.0158 111.5384 0000729  28.3713 200.4424  1.00271692 11120
OPTUS 10                
1 40146U 14054A   17269.52910698 -.00000089  00000-0  00000+0 0  9991
2 40146   0.0918  30.8991 0001410 152.7685 176.3482  1.00274295 11187
MEASAT-3B               
1 40147U 14054B   17269.73014668 -.00000255  00000-0  00000+0 0  9992
2 40147   0.0062 306.9154 0001123 275.7986 137.2773  1.00269097 11236
LUCH (OLYMP)            
1 40258U 14058A   17270.63004543  .00000142  00000-0  00000-0 0  9996
2 40258   0.0341 260.2703 0000384  51.1176 314.7650  1.00273448 11002
HIMAWARI-8              
1 40267U 14060A   17269.59380538 -.00000291  00000-0  00000-0 0  9999
2 40267   0.0120 191.4418 0000982 343.8246 184.7514  1.00271528 10817
IRNSS-1C                
1 40269U 14061A   17269.43576421 -.00000179  00000-0  00000-0 0  9998
2 40269   2.8378 245.7112 0021583   6.8425 352.8092  1.00270333 10747
